OBJECT_NAME,OBJECT_ID,EPOCH,MEAN_MOTION,ECCENTRICITY,INCLINATION,RA_OF_ASC_NODE,ARG_OF_PERICENTER,MEAN_ANOMALY,EPHEMERIS_TYPE,CLASSIFICATION_TYPE,NORAD_CAT_ID,ELEMENT_SET_NO,REV_AT_EPOCH,BSTAR,MEAN_MOTION_DOT,MEAN_MOTION_DDOT
ONEWEB-0275,2021-060AC,2026-06-16T13:05:27.921984,13.16594582,.00019183,87.9099,228.9030,96.0940,264.0410,0,U,48993,999,23947,.65037172E-4,.38E-6,0
ONEWEB-0276,2021-060AD,2026-06-16T13:53:20.061888,13.16594399,.00019678,87.9097,228.8959,92.9655,267.1701,0,U,48994,999,23949,-.2150251E-3,-.69E-6,0
ONEWEB-0277,2021-060AE,2026-06-16T14:11:35.244096,13.16593279,.00019062,87.9090,228.9023,101.3833,258.7512,0,U,48995,999,23948,-.10064445E-3,-.26E-6,0
ONEWEB-0278,2021-060AF,2026-06-16T13:57:52.216704,13.16592690,.00022687,87.9102,228.8947,99.2253,260.9135,0,U,48996,999,23961,-.14060951E-3,-.41E-6,0
ONEWEB-0279,2021-060AG,2026-06-16T14:09:17.843904,13.16594506,.00017764,87.9096,228.8911,97.6042,262.5291,0,U,48997,999,23954,-.2548898E-3,-.85E-6,0
ONEWEB-0280,2021-060AH,2026-06-16T12:41:30.753024,13.16593669,.0002113,87.9096,228.9074,107.7526,252.3835,0,U,48998,999,23947,.5436298E-4,.34E-6,0
ONEWEB-0281,2021-060AJ,2026-06-16T12:49:30.115776,13.16594051,.00020886,87.9100,228.9014,98.6377,261.4991,0,U,48999,999,23954,-.74408492E-4,-.16E-6,0
ONEWEB-0282,2021-060AK,2026-06-16T13:32:47.720544,13.16592804,.00019645,87.9099,228.9038,101.2952,258.8399,0,U,49000,999,23952,.28846861E-4,.24E-6,0
ONEWEB-0283,2021-060AL,2026-06-16T13:16:51.295872,13.16594423,.00018552,87.9097,228.9054,97.5224,262.6118,0,U,49001,999,23953,.12782552E-3,.62E-6,0
ONEWEB-0284,2021-060AM,2026-06-16T13:07:44.677632,13.16593845,.00022207,87.9096,228.9000,105.0853,255.0524,0,U,49002,999,23951,-.71033305E-4,-.14E-6,0
ONEWEB-0285,2021-075A,2026-06-16T12:38:18.252960,13.12443106,.00017558,87.8947,350.7930,92.2464,267.8865,0,U,49075,999,23512,-.80952046E-3,-.279E-5,0
ONEWEB-0286,2021-075B,2026-06-16T14:02:16.993824,13.12442443,.00019827,87.8937,350.7985,86.9183,273.2172,0,U,49076,999,23448,.10865317E-2,.404E-5,0
ONEWEB-0287,2021-075C,2026-06-16T13:25:11.552736,13.17650138,.0002244,87.9133,5.9907,85.1079,275.0309,0,U,49077,999,23354,.22725152E-3,.101E-5,0
ONEWEB-0288,2021-075D,2026-06-16T13:28:19.564320,13.12444353,.00020487,87.8946,350.7798,92.3519,267.7844,0,U,49078,999,23510,.80643689E-3,.303E-5,0
ONEWEB-0289,2021-075E,2026-06-16T14:20:53.011392,13.17649916,.00018583,87.9137,6.0000,100.8016,259.3325,0,U,49079,999,23412,.14025233E-3,.67E-6,0
ONEWEB-0290,2021-075F,2026-06-16T13:42:12.880224,13.17648987,.00018167,87.9142,5.9771,104.7210,255.4123,0,U,49080,999,23353,.16434082E-3,.77E-6,0
ONEWEB-0291,2021-075G,2026-06-16T13:20:20.592960,13.17649100,.0002163,87.9136,5.9877,93.1776,266.9603,0,U,49081,999,23352,.1198988E-3,.59E-6,0
ONEWEB-0293,2021-075H,2026-06-16T13:56:46.814496,13.17648682,.00018967,87.9131,5.9860,93.0236,267.1112,0,U,49082,999,23355,.17556205E-4,.2E-6,0
ONEWEB-0294,2021-075J,2026-06-16T11:48:18.287712,13.12444645,.00018255,87.8946,350.7973,101.5397,258.5937,0,U,49083,999,23448,.113524E-2,.421E-5,0
ONEWEB-0295,2021-075K,2026-06-16T13:55:34.219488,13.17648858,.00021842,87.9131,5.9903,89.6335,270.5046,0,U,49084,999,23351,.14393822E-3,.69E-6,0
ONEWEB-0296,2021-075L,2026-06-16T13:08:47.914656,13.12444728,.00021485,87.8951,350.7934,93.6555,266.4819,0,U,49085,999,23449,-.72930541E-3,-.25E-5,0
ONEWEB-0297,2021-075M,2026-06-16T12:02:56.350176,13.12443890,.00019232,87.8937,350.8136,90.0718,270.0631,0,U,49086,999,23509,.11662465E-2,.432E-5,0
ONEWEB-0298,2021-075N,2026-06-16T14:01:50.666016,13.17648188,.00019098,87.9132,5.9874,84.4061,275.7288,0,U,49087,999,23354,-.18192249E-4,.6E-7,0
ONEWEB-0299,2021-075P,2026-06-16T14:04:04.715616,13.17649970,.00020272,87.9142,5.9673,86.5633,273.5730,0,U,49088,999,23352,-.35696221E-4,-.1E-7,0
ONEWEB-0300,2021-075Q,2026-06-16T13:41:44.004480,13.12445371,.00018236,87.8948,350.7791,78.3542,281.7791,0,U,49089,999,23512,.12757732E-2,.472E-5,0
ONEWEB-0301,2021-075R,2026-06-16T13:18:33.018912,13.12445173,.00016903,87.8945,350.7807,80.4193,279.7127,0,U,49090,999,23448,-.32053489E-3,-.103E-5,0
ONEWEB-0302,2021-075S,2026-06-16T12:59:02.551200,13.12444454,.00019554,87.8949,350.7951,99.9316,260.2034,0,U,49091,999,23446,-.98861515E-3,-.343E-5,0
ONEWEB-0304,2021-075T,2026-06-16T13:27:37.494432,13.17649777,.00020143,87.9134,5.9947,88.2076,271.9286,0,U,49092,999,23349,.15330523E-3,.72E-6,0
ONEWEB-0305,2021-075U,2026-06-16T13:17:54.488832,13.17649513,.00022337,87.9142,5.9804,86.3728,273.7659,0,U,49093,999,23352,.13094929E-3,.64E-6,0
ONEWEB-0308,2021-075V,2026-06-16T12:49:16.839552,13.12443524,.00017866,87.8948,350.7883,90.5092,269.6241,0,U,49094,999,23447,-.11319681E-2,-.394E-5,0
