[
  {
    "name": "ONEWEB-0275",
    "noradId": "48993",
    "line1": "1 48993U 21060AC  26167.54546206  .00000038  00000+0  65037-4 0  9991",
    "line2": "2 48993  87.9099 228.9030 0001918  96.0940 264.0410 13.16594582239474"
  },
  {
    "name": "ONEWEB-0276",
    "noradId": "48994",
    "line1": "1 48994U 21060AD  26167.57870442 -.00000069  00000+0 -21503-3 0  9992",
    "line2": "2 48994  87.9097 228.8959 0001967  92.9655 267.1701 13.16594399239499"
  },
  {
    "name": "ONEWEB-0277",
    "noradId": "48995",
    "line1": "1 48995U 21060AE  26167.59138014 -.00000026  00000+0 -10064-3 0  9990",
    "line2": "2 48995  87.9090 228.9023 0001906 101.3833 258.7512 13.16593279239483"
  },
  {
    "name": "ONEWEB-0278",
    "noradId": "48996",
    "line1": "1 48996U 21060AF  26167.58185436 -.00000041  00000+0 -14061-3 0  9998",
    "line2": "2 48996  87.9102 228.8947 0002268  99.2253 260.9135 13.16592690239612"
  },
  {
    "name": "ONEWEB-0279",
    "noradId": "48997",
    "line1": "1 48997U 21060AG  26167.58978986 -.00000085  00000+0 -25489-3 0  9993",
    "line2": "2 48997  87.9096 228.8911 0001776  97.6042 262.5291 13.16594506239548"
  },
  {
    "name": "ONEWEB-0280",
    "noradId": "48998",
    "line1": "1 48998U 21060AH  26167.52882816  .00000034  00000+0  54363-4 0  9990",
    "line2": "2 48998  87.9096 228.9074 0002113 107.7526 252.3835 13.16593669239478"
  },
  {
    "name": "ONEWEB-0281",
    "noradId": "48999",
    "line1": "1 48999U 21060AJ  26167.53437634 -.00000016  00000+0 -74408-4 0  9990",
    "line2": "2 48999  87.9100 228.9014 0002088  98.6377 261.4991 13.16594051239540"
  },
  {
    "name": "ONEWEB-0282",
    "noradId": "49000",
    "line1": "1 49000U 21060AK  26167.56444121  .00000024  00000+0  28847-4 0  9999",
    "line2": "2 49000  87.9099 228.9038 0001964 101.2952 258.8399 13.16592804239523"
  },
  {
    "name": "ONEWEB-0283",
    "noradId": "49001",
    "line1": "1 49001U 21060AL  26167.55337148  .00000062  00000+0  12783-3 0  9992",
    "line2": "2 49001  87.9097 228.9054 0001855  97.5224 262.6118 13.16594423239530"
  },
  {
    "name": "ONEWEB-0284",
    "noradId": "49002",
    "line1": "1 49002U 21060AM  26167.54704488 -.00000014  00000+0 -71033-4 0  9990",
    "line2": "2 49002  87.9096 228.9000 0002220 105.0853 255.0524 13.16593845239513"
  },
  {
    "name": "ONEWEB-0285",
    "noradId": "49075",
    "line1": "1 49075U 21075A   26167.52660015 -.00000279  00000+0 -80952-3 0  9993",
    "line2": "2 49075  87.8947 350.7930 0001755  92.2464 267.8865 13.12443106235122"
  },
  {
    "name": "ONEWEB-0286",
    "noradId": "49076",
    "line1": "1 49076U 21075B   26167.58491891  .00000404  00000+0  10865-2 0  9997",
    "line2": "2 49076  87.8937 350.7985 0001982  86.9183 273.2172 13.12442443234485"
  },
  {
    "name": "ONEWEB-0287",
    "noradId": "49077",
    "line1": "1 49077U 21075C   26167.55916149  .00000101  00000+0  22725-3 0  9996",
    "line2": "2 49077  87.9133   5.9907 0002244  85.1079 275.0309 13.17650138233540"
  },
  {
    "name": "ONEWEB-0288",
    "noradId": "49078",
    "line1": "1 49078U 21075D   26167.56133755  .00000303  00000+0  80644-3 0  9990",
    "line2": "2 49078  87.8946 350.7798 0002048  92.3519 267.7844 13.12444353235103"
  },
  {
    "name": "ONEWEB-0289",
    "noradId": "49079",
    "line1": "1 49079U 21075E   26167.59783578  .00000067  00000+0  14025-3 0  9995",
    "line2": "2 49079  87.9137   6.0000 0001858 100.8016 259.3325 13.17649916234128"
  },
  {
    "name": "ONEWEB-0290",
    "noradId": "49080",
    "line1": "1 49080U 21075F   26167.57098241  .00000077  00000+0  16434-3 0  9998",
    "line2": "2 49080  87.9142   5.9771 0001816 104.7210 255.4123 13.17648987233536"
  },
  {
    "name": "ONEWEB-0291",
    "noradId": "49081",
    "line1": "1 49081U 21075G   26167.55579390  .00000059  00000+0  11990-3 0  9998",
    "line2": "2 49081  87.9136   5.9877 0002163  93.1776 266.9603 13.17649100233528"
  },
  {
    "name": "ONEWEB-0293",
    "noradId": "49082",
    "line1": "1 49082U 21075H   26167.58109739  .00000020  00000+0  17556-4 0  9991",
    "line2": "2 49082  87.9131   5.9860 0001896  93.0236 267.1112 13.17648682233553"
  },
  {
    "name": "ONEWEB-0294",
    "noradId": "49083",
    "line1": "1 49083U 21075J   26167.49187833  .00000421  00000+0  11352-2 0  9994",
    "line2": "2 49083  87.8946 350.7973 0001825 101.5397 258.5937 13.12444645234488"
  },
  {
    "name": "ONEWEB-0295",
    "noradId": "49084",
    "line1": "1 49084U 21075K   26167.58025717  .00000069  00000+0  14394-3 0  9995",
    "line2": "2 49084  87.9131   5.9903 0002184  89.6335 270.5046 13.17648858233510"
  },
  {
    "name": "ONEWEB-0296",
    "noradId": "49085",
    "line1": "1 49085U 21075L   26167.54777679 -.00000250  00000+0 -72931-3 0  9998",
    "line2": "2 49085  87.8951 350.7934 0002148  93.6555 266.4819 13.12444728234499"
  },
  {
    "name": "ONEWEB-0297",
    "noradId": "49086",
    "line1": "1 49086U 21075M   26167.50204109  .00000432  00000+0  11662-2 0  9991",
    "line2": "2 49086  87.8937 350.8136 0001923  90.0718 270.0631 13.12443890235090"
  },
  {
    "name": "ONEWEB-0298",
    "noradId": "49087",
    "line1": "1 49087U 21075N   26167.58461419  .00000006  00000+0 -18192-4 0  9994",
    "line2": "2 49087  87.9132   5.9874 0001909  84.4061 275.7288 13.17648188233548"
  },
  {
    "name": "ONEWEB-0299",
    "noradId": "49088",
    "line1": "1 49088U 21075P   26167.58616569 -.00000001  00000+0 -35696-4 0  9997",
    "line2": "2 49088  87.9142   5.9673 0002027  86.5633 273.5730 13.17649970233523"
  },
  {
    "name": "ONEWEB-0300",
    "noradId": "49089",
    "line1": "1 49089U 21075Q   26167.57064820  .00000472  00000+0  12758-2 0  9996",
    "line2": "2 49089  87.8948 350.7791 0001823  78.3542 281.7791 13.12445371235120"
  },
  {
    "name": "ONEWEB-0301",
    "noradId": "49090",
    "line1": "1 49090U 21075R   26167.55454883 -.00000103  00000+0 -32053-3 0  9992",
    "line2": "2 49090  87.8945 350.7807 0001690  80.4193 279.7127 13.12445173234483"
  },
  {
    "name": "ONEWEB-0302",
    "noradId": "49091",
    "line1": "1 49091U 21075S   26167.54100175 -.00000343  00000+0 -98862-3 0  9990",
    "line2": "2 49091  87.8949 350.7951 0001955  99.9316 260.2034 13.12444454234465"
  },
  {
    "name": "ONEWEB-0304",
    "noradId": "49092",
    "line1": "1 49092U 21075T   26167.56085063  .00000072  00000+0  15331-3 0  9998",
    "line2": "2 49092  87.9134   5.9947 0002014  88.2076 271.9286 13.17649777233498"
  },
  {
    "name": "ONEWEB-0305",
    "noradId": "49093",
    "line1": "1 49093U 21075U   26167.55410288  .00000064  00000+0  13095-3 0  9995",
    "line2": "2 49093  87.9142   5.9804 0002233  86.3728 273.7659 13.17649513233522"
  },
  {
    "name": "ONEWEB-0308",
    "noradId": "49094",
    "line1": "1 49094U 21075V   26167.53422268 -.00000394  00000+0 -11320-2 0  9991",
    "line2": "2 49094  87.8948 350.7883 0001786  90.5092 269.6241 13.12443524234472"
  }
]